STARLINK-3881           
1 52472U 22049X   26087.38519020  .00000625  00000+0  57335-4 0  9997
2 52472  53.2179 335.1920 0001491  94.6275 265.4887 15.08836167215070
STARLINK-3879           
1 52473U 22049Y   26086.99510866  .00002653  00000+0  18475-3 0  9997
2 52473  53.2186 336.9435 0001855 102.0811 258.0389 15.08829543215012
STARLINK-3882           
1 52475U 22049AA  26087.40729391  .00000821  00000+0  69690-4 0  9992
2 52475  53.2177 335.3169 0001234  84.0811 276.0321 15.08841816215070
STARLINK-3835           
1 52476U 22049AB  26087.35765470  .00000587  00000+0  54944-4 0  9990
2 52476  53.2195 325.5573 0001297  95.6080 264.5060 15.08837195216445
STARLINK-3860           
1 52477U 22049AC  26087.07698574 -.00000401  00000+0 -71299-5 0  9990
2 52477  53.2202 326.5782 0001506  95.1527 264.9638 15.08843493216401
STARLINK-3825           
1 52478U 22049AD  26087.11286238  .00000613  00000+0  56568-4 0  9990
2 52478  53.2178 336.4142 0001247  90.7134 269.4001 15.08845499216278
STARLINK-3878           
1 52479U 22049AE  26086.92979344 -.00003746  00000+0 -21729-3 0  9998
2 52479  53.2183 327.2409 0001289  84.9818 275.1321 15.08855749216389
STARLINK-3839           
1 52480U 22049AF  26087.37414344 -.00000479  00000+0 -12019-4 0  9997
2 52480  53.2191 335.2442 0001591  86.8250 273.2924 15.08847680215071
STARLINK-3813           
1 52482U 22049AH  26087.38611117  .00000955  00000+0  78082-4 0  9996
2 52482  53.2179 325.1912 0001596  89.5706 270.5469 15.08841018215219
STARLINK-3875           
1 52483U 22049AJ  26087.39714968 -.00000444  00000+0 -98206-5 0  9992
2 52483  53.2192 325.1410 0001396  98.0698 262.0452 15.08843481216452
STARLINK-3887           
1 52484U 22049AK  26086.97302440 -.00000603  00000+0 -19763-4 0  9991
2 52484  53.2177 337.0431 0001648  91.0789 269.0392 15.08845805215018
STARLINK-3913           
1 52485U 22049AL  26087.38979234  .00002775  00000+0  19240-3 0  9998
2 52485  53.2189 325.1741 0001425  86.3781 273.7374 15.08831004215216
STARLINK-3918           
1 52486U 22049AM  26086.96566764  .00003826  00000+0  25829-3 0  9990
2 52486  53.2180 337.0772 0001366  98.4755 261.6392 15.08849340215019
STARLINK-3902           
1 52487U 22049AN  26086.93716227  .00000166  00000+0  28516-4 0  9990
2 52487  53.2181 327.3118 0001413  87.3733 272.7420 15.08842767216385
STARLINK-3892           
1 52488U 22049AP  26087.09447010  .00003452  00000+0  23486-3 0  9991
2 52488  53.2184 336.5014 0001483 103.5260 256.5897 15.08845609215036
STARLINK-3923           
1 52489U 22049AQ  26086.96934914  .00000778  00000+0  66959-4 0  9992
2 52489  53.2183 337.0621 0001481  96.9243 263.1917 15.08843905215012
