[{"OBJECT_NAME":"STARLINK-3881","OBJECT_ID":"2022-049X","EPOCH":"2026-03-28T09:14:40.433280","MEAN_MOTION":15.08836167,"ECCENTRICITY":0.0001491,"INCLINATION":53.2179,"RA_OF_ASC_NODE":335.192,"ARG_OF_PERICENTER":94.6275,"MEAN_ANOMALY":265.4887,"EPHEMERIS_TYPE":0,"CLASSIFICATION_TYPE":"U","NORAD_CAT_ID":52472,"ELEMENT_SET_NO":999,"REV_AT_EPOCH":21507,"BSTAR":5.7335e-5,"MEAN_MOTION_DOT":6.25e-6,"MEAN_MOTION_DDOT":0},{"OBJECT_NAME":"STARLINK-3879","OBJECT_ID":"2022-049Y","EPOCH":"2026-03-27T23:52:57.388224","MEAN_MOTION":15.08829543,"ECCENTRICITY":0.00018556,"INCLINATION":53.2186,"RA_OF_ASC_NODE":336.9435,"ARG_OF_PERICENTER":102.0811,"MEAN_ANOMALY":258.0389,"EPHEMERIS_TYPE":0,"CLASSIFICATION_TYPE":"U","NORAD_CAT_ID":52473,"ELEMENT_SET_NO":999,"REV_AT_EPOCH":21501,"BSTAR":0.00018474828,"MEAN_MOTION_DOT":2.653e-5,"MEAN_MOTION_DDOT":0},{"OBJECT_NAME":"STARLINK-3882","OBJECT_ID":"2022-049AA","EPOCH":"2026-03-28T09:46:30.193824","MEAN_MOTION":15.08841816,"ECCENTRICITY":0.0001234,"INCLINATION":53.2177,"RA_OF_ASC_NODE":335.3169,"ARG_OF_PERICENTER":84.0811,"MEAN_ANOMALY":276.0321,"EPHEMERIS_TYPE":0,"CLASSIFICATION_TYPE":"U","NORAD_CAT_ID":52475,"ELEMENT_SET_NO":999,"REV_AT_EPOCH":21507,"BSTAR":6.969e-5,"MEAN_MOTION_DOT":8.21e-6,"MEAN_MOTION_DDOT":0},{"OBJECT_NAME":"STARLINK-3835","OBJECT_ID":"2022-049AB","EPOCH":"2026-03-28T08:35:01.366080","MEAN_MOTION":15.08837195,"ECCENTRICITY":0.0001297,"INCLINATION":53.2195,"RA_OF_ASC_NODE":325.5573,"ARG_OF_PERICENTER":95.608,"MEAN_ANOMALY":264.506,"EPHEMERIS_TYPE":0,"CLASSIFICATION_TYPE":"U","NORAD_CAT_ID":52476,"ELEMENT_SET_NO":999,"REV_AT_EPOCH":21644,"BSTAR":5.4944e-5,"MEAN_MOTION_DOT":5.87e-6,"MEAN_MOTION_DDOT":0},{"OBJECT_NAME":"STARLINK-3860","OBJECT_ID":"2022-049AC","EPOCH":"2026-03-28T01:50:51.567936","MEAN_MOTION":15.08843493,"ECCENTRICITY":0.00015067,"INCLINATION":53.2202,"RA_OF_ASC_NODE":326.5782,"ARG_OF_PERICENTER":95.1527,"MEAN_ANOMALY":264.9638,"EPHEMERIS_TYPE":0,"CLASSIFICATION_TYPE":"U","NORAD_CAT_ID":52477,"ELEMENT_SET_NO":999,"REV_AT_EPOCH":21640,"BSTAR":-7.1299e-6,"MEAN_MOTION_DOT":-4.01e-6,"MEAN_MOTION_DDOT":0},{"OBJECT_NAME":"STARLINK-3825","OBJECT_ID":"2022-049AD","EPOCH":"2026-03-28T02:42:31.309632","MEAN_MOTION":15.08845499,"ECCENTRICITY":0.00012476,"INCLINATION":53.2178,"RA_OF_ASC_NODE":336.4142,"ARG_OF_PERICENTER":90.7134,"MEAN_ANOMALY":269.4001,"EPHEMERIS_TYPE":0,"CLASSIFICATION_TYPE":"U","NORAD_CAT_ID":52478,"ELEMENT_SET_NO":999,"REV_AT_EPOCH":21627,"BSTAR":5.6568462e-5,"MEAN_MOTION_DOT":6.13e-6,"MEAN_MOTION_DDOT":0},{"OBJECT_NAME":"STARLINK-3878","OBJECT_ID":"2022-049AE","EPOCH":"2026-03-27T22:18:54.153216","MEAN_MOTION":15.08855749,"ECCENTRICITY":0.0001289,"INCLINATION":53.2183,"RA_OF_ASC_NODE":327.2409,"ARG_OF_PERICENTER":84.9818,"MEAN_ANOMALY":275.1321,"EPHEMERIS_TYPE":0,"CLASSIFICATION_TYPE":"U","NORAD_CAT_ID":52479,"ELEMENT_SET_NO":999,"REV_AT_EPOCH":21638,"BSTAR":-0.00021729,"MEAN_MOTION_DOT":-3.746e-5,"MEAN_MOTION_DDOT":0},{"OBJECT_NAME":"STARLINK-3839","OBJECT_ID":"2022-049AF","EPOCH":"2026-03-28T08:58:45.993216","MEAN_MOTION":15.0884768,"ECCENTRICITY":0.0001591,"INCLINATION":53.2191,"RA_OF_ASC_NODE":335.2442,"ARG_OF_PERICENTER":86.825,"MEAN_ANOMALY":273.2924,"EPHEMERIS_TYPE":0,"CLASSIFICATION_TYPE":"U","NORAD_CAT_ID":52480,"ELEMENT_SET_NO":999,"REV_AT_EPOCH":21507,"BSTAR":-1.2019e-5,"MEAN_MOTION_DOT":-4.79e-6,"MEAN_MOTION_DDOT":0},{"OBJECT_NAME":"STARLINK-3813","OBJECT_ID":"2022-049AH","EPOCH":"2026-03-28T09:16:00.005088","MEAN_MOTION":15.08841018,"ECCENTRICITY":0.0001596,"INCLINATION":53.2179,"RA_OF_ASC_NODE":325.1912,"ARG_OF_PERICENTER":89.5706,"MEAN_ANOMALY":270.5469,"EPHEMERIS_TYPE":0,"CLASSIFICATION_TYPE":"U","NORAD_CAT_ID":52482,"ELEMENT_SET_NO":999,"REV_AT_EPOCH":21521,"BSTAR":7.8082e-5,"MEAN_MOTION_DOT":9.55e-6,"MEAN_MOTION_DDOT":0},{"OBJECT_NAME":"STARLINK-3875","OBJECT_ID":"2022-049AJ","EPOCH":"2026-03-28T09:31:53.732352","MEAN_MOTION":15.08843481,"ECCENTRICITY":0.0001396,"INCLINATION":53.2192,"RA_OF_ASC_NODE":325.141,"ARG_OF_PERICENTER":98.0698,"MEAN_ANOMALY":262.0452,"EPHEMERIS_TYPE":0,"CLASSIFICATION_TYPE":"U","NORAD_CAT_ID":52483,"ELEMENT_SET_NO":999,"REV_AT_EPOCH":21645,"BSTAR":-9.8206e-6,"MEAN_MOTION_DOT":-4.44e-6,"MEAN_MOTION_DDOT":0},{"OBJECT_NAME":"STARLINK-3887","OBJECT_ID":"2022-049AK","EPOCH":"2026-03-27T23:21:09.308160","MEAN_MOTION":15.08845805,"ECCENTRICITY":0.0001648,"INCLINATION":53.2177,"RA_OF_ASC_NODE":337.0431,"ARG_OF_PERICENTER":91.0789,"MEAN_ANOMALY":269.0392,"EPHEMERIS_TYPE":0,"CLASSIFICATION_TYPE":"U","NORAD_CAT_ID":52484,"ELEMENT_SET_NO":999,"REV_AT_EPOCH":21501,"BSTAR":-1.9763e-5,"MEAN_MOTION_DOT":-6.03e-6,"MEAN_MOTION_DDOT":0},{"OBJECT_NAME":"STARLINK-3913","OBJECT_ID":"2022-049AL","EPOCH":"2026-03-28T09:21:18.058176","MEAN_MOTION":15.08831004,"ECCENTRICITY":0.0001425,"INCLINATION":53.2189,"RA_OF_ASC_NODE":325.1741,"ARG_OF_PERICENTER":86.3781,"MEAN_ANOMALY":273.7374,"EPHEMERIS_TYPE":0,"CLASSIFICATION_TYPE":"U","NORAD_CAT_ID":52485,"ELEMENT_SET_NO":999,"REV_AT_EPOCH":21521,"BSTAR":0.0001924,"MEAN_MOTION_DOT":2.775e-5,"MEAN_MOTION_DDOT":0},{"OBJECT_NAME":"STARLINK-3918","OBJECT_ID":"2022-049AM","EPOCH":"2026-03-27T23:10:33.684096","MEAN_MOTION":15.0884934,"ECCENTRICITY":0.0001366,"INCLINATION":53.218,"RA_OF_ASC_NODE":337.0772,"ARG_OF_PERICENTER":98.4755,"MEAN_ANOMALY":261.6392,"EPHEMERIS_TYPE":0,"CLASSIFICATION_TYPE":"U","NORAD_CAT_ID":52486,"ELEMENT_SET_NO":999,"REV_AT_EPOCH":21501,"BSTAR":0.00025829,"MEAN_MOTION_DOT":3.826e-5,"MEAN_MOTION_DDOT":0},{"OBJECT_NAME":"STARLINK-3902","OBJECT_ID":"2022-049AN","EPOCH":"2026-03-27T22:29:30.820128","MEAN_MOTION":15.08842767,"ECCENTRICITY":0.0001413,"INCLINATION":53.2181,"RA_OF_ASC_NODE":327.3118,"ARG_OF_PERICENTER":87.3733,"MEAN_ANOMALY":272.742,"EPHEMERIS_TYPE":0,"CLASSIFICATION_TYPE":"U","NORAD_CAT_ID":52487,"ELEMENT_SET_NO":999,"REV_AT_EPOCH":21638,"BSTAR":2.8516e-5,"MEAN_MOTION_DOT":1.66e-6,"MEAN_MOTION_DDOT":0},{"OBJECT_NAME":"STARLINK-3892","OBJECT_ID":"2022-049AP","EPOCH":"2026-03-28T02:16:02.216640","MEAN_MOTION":15.08845609,"ECCENTRICITY":0.00014836,"INCLINATION":53.2184,"RA_OF_ASC_NODE":336.5014,"ARG_OF_PERICENTER":103.526,"MEAN_ANOMALY":256.5897,"EPHEMERIS_TYPE":0,"CLASSIFICATION_TYPE":"U","NORAD_CAT_ID":52488,"ELEMENT_SET_NO":999,"REV_AT_EPOCH":21503,"BSTAR":0.00023486084,"MEAN_MOTION_DOT":3.452e-5,"MEAN_MOTION_DDOT":0},{"OBJECT_NAME":"STARLINK-3923","OBJECT_ID":"2022-049AQ","EPOCH":"2026-03-27T23:15:51.765696","MEAN_MOTION":15.08843905,"ECCENTRICITY":0.0001481,"INCLINATION":53.2183,"RA_OF_ASC_NODE":337.0621,"ARG_OF_PERICENTER":96.9243,"MEAN_ANOMALY":263.1917,"EPHEMERIS_TYPE":0,"CLASSIFICATION_TYPE":"U","NORAD_CAT_ID":52489,"ELEMENT_SET_NO":999,"REV_AT_EPOCH":21501,"BSTAR":6.6959e-5,"MEAN_MOTION_DOT":7.78e-6,"MEAN_MOTION_DDOT":0}]
